{
    "links": {
        "self": "http://www.neowsapp.com/rest/v1/neo/3991644?api_key=iIulBulltgU6a56xZRHN4H3l9WmuAYTsLGpBGhQ2"
    },
    "id": "3991644",
    "neo_reference_id": "3991644",
    "name": "(2020 DQ)",
    "designation": "2020 DQ",
    "nasa_jpl_url": "http://ssd.jpl.nasa.gov/sbdb.cgi?sstr=3991644",
    "absolute_magnitude_h": 21.36,
    "estimated_diameter": {
        "kilometers": {
            "estimated_diameter_min": 0.1420872067,
            "estimated_diameter_max": 0.317716653
        },
        "meters": {
            "estimated_diameter_min": 142.0872067277,
            "estimated_diameter_max": 317.7166529762
        },
        "miles": {
            "estimated_diameter_min": 0.0882888697,
            "estimated_diameter_max": 0.1974199144
        },
        "feet": {
            "estimated_diameter_min": 466.1653913206,
            "estimated_diameter_max": 1042.3775037506
        }
    },
    "is_potentially_hazardous_asteroid": false,
    "close_approach_data": [
        {
            "close_approach_date": "1988-01-23",
            "close_approach_date_full": "1988-Jan-23 05:36",
            "epoch_date_close_approach": 569914560000,
            "relative_velocity": {
                "kilometers_per_second": "3.5228719935",
                "kilometers_per_hour": "12682.3391766943",
                "miles_per_hour": "7880.3123623187"
            },
            "miss_distance": {
                "astronomical": "0.2837348719",
                "lunar": "110.3728651691",
                "kilometers": "42446132.480962853",
                "miles": "26374803.7077712514"
            },
            "orbiting_body": "Earth"
        },
        {
            "close_approach_date": "2020-01-28",
            "close_approach_date_full": "2020-Jan-28 08:14",
            "epoch_date_close_approach": 1580199240000,
            "relative_velocity": {
                "kilometers_per_second": "3.4038161953",
                "kilometers_per_hour": "12253.7383029755",
                "miles_per_hour": "7613.9964472016"
            },
            "miss_distance": {
                "astronomical": "0.2506528753",
                "lunar": "97.5039684917",
                "kilometers": "37497136.254255611",
                "miles": "23299640.0497289918"
            },
            "orbiting_body": "Earth"
        },
        {
            "close_approach_date": "2023-03-09",
            "close_approach_date_full": "2023-Mar-09 19:34",
            "epoch_date_close_approach": 1678390440000,
            "relative_velocity": {
                "kilometers_per_second": "3.2878443118",
                "kilometers_per_hour": "11836.2395226173",
                "miles_per_hour": "7354.5789411507"
            },
            "miss_distance": {
                "astronomical": "0.4642963253",
                "lunar": "180.6112705417",
                "kilometers": "69457741.313707111",
                "miles": "43159039.1410996918"
            },
            "orbiting_body": "Earth"
        }
    ],
    "orbital_data": {
        "orbit_id": "16",
        "orbit_determination_date": "2020-05-16 06:34:22",
        "first_observation_date": "2020-02-16",
        "last_observation_date": "2020-04-16",
        "data_arc_in_days": 60,
        "observations_used": 75,
        "orbit_uncertainty": "6",
        "minimum_orbit_intersection": ".232635",
        "jupiter_tisserand_invariant": "3.689",
        "epoch_osculation": "2459000.5",
        "eccentricity": ".4095117183987066",
        "semi_major_axis": "2.038017934725624",
        "inclination": "6.103786615158727",
        "ascending_node_longitude": "173.7006690355136",
        "orbital_period": "1062.69938474402",
        "perihelion_distance": "1.203425708148751",
        "perihelion_argument": "312.9936599563159",
        "aphelion_distance": "2.872610161302498",
        "perihelion_time": "2458880.889981628803",
        "mean_anomaly": "40.51908491882974",
        "mean_motion": ".3387599589950981",
        "equinox": "J2000",
        "orbit_class": {
            "orbit_class_type": "AMO",
            "orbit_class_description": "Near-Earth asteroid orbits similar to that of 1221 Amor",
            "orbit_class_range": "1.017 AU < q (perihelion) < 1.3 AU"
        }
    },
    "is_sentry_object": false
}